NORAD_CAT_ID,OBJECT_NAME,OBJECT_TYPE,EPOCH,MEAN_MOTION,ECCENTRICITY,INCLINATION,RA_OF_ASC_NODE,ARG_OF_PERICENTER,MEAN_ANOMALY,BSTAR,MEAN_MOTION_DOT,MEAN_MOTION_DDOT,TLE_LINE0,TLE_LINE1,TLE_LINE2,SEMIMAJOR_AXIS,PERIOD,APOGEE,PERIGEE,DECAYED
53701.0,STARLINK-4711,PAYLOAD,2024-01-30 09:41:30,15.08837494,0.0001809,53.218,97.1716,117.3551,242.7626,1.4397e-05,-5.9e-07,0.0,0 STARLINK-4711,1 53701U 22107B   24030.40382532 -.00000059  00000-0  14397-4 0  9997,2 53701  53.2180  97.1716 0001809 117.3551 242.7626 15.08837494 77977,6917.888,95.438,541.004,538.502,0.0
53701.0,STARLINK-4711,PAYLOAD,2024-01-31 14:18:26,15.08842165,0.0001609,53.2169,91.8122,101.1707,258.9466,-4.5105e-05,-1.006e-05,0.0,0 STARLINK-4711,1 53701U 22107B   24031.59614567 -.00001006  00000-0 -45105-4 0  9999,2 53701  53.2169  91.8122 0001609 101.1707 258.9466 15.08842165 78904,6917.874,95.437,540.852,538.626,0.0
53701.0,STARLINK-4711,PAYLOAD,2024-02-01 12:33:51,15.08838594,0.0001619,53.2175,87.6493,92.1441,267.9736,7.8515e-05,9.62e-06,0.0,0 STARLINK-4711,1 53701U 22107B   24032.52350732  .00000962  00000-0  78515-4 0  9993,2 53701  53.2175  87.6493 0001619  92.1441 267.9736 15.08838594 79047,6917.885,95.438,540.87,538.63,0.0
53701.0,STARLINK-4711,PAYLOAD,2024-02-02 09:13:51,15.08836049,0.0001778,53.2181,83.7835,95.0401,265.0794,0.00010483,1.381e-05,0.0,0 STARLINK-4711,1 53701U 22107B   24033.38462921  .00001381  00000-0  10483-3 0  9997,2 53701  53.2181  83.7835 0001778  95.0401 265.0794 15.08836049 78422,6917.892,95.438,540.987,538.527,0.0
53701.0,STARLINK-4711,PAYLOAD,2024-02-02 12:24:38,15.08839847,0.0001804,53.2181,83.189,101.6068,258.5127,9.2596e-05,1.186e-05,0.0,0 STARLINK-4711,1 53701U 22107B   24033.51710740  .00001186  00000-0  92596-4 0  9996,2 53701  53.2181  83.1890 0001804 101.6068 258.5127 15.08839847 79191,6917.881,95.438,540.994,538.498,0.0
53701.0,STARLINK-4711,PAYLOAD,2024-02-03 12:15:25,15.08841336,0.0001851,53.2187,78.7279,82.6032,277.5171,3.2039e-05,2.22e-06,0.0,0 STARLINK-4711,1 53701U 22107B   24034.51071077  .00000222  00000-0  32039-4 0  9996,2 53701  53.2187  78.7279 0001851  82.6032 277.5171 15.08841336 78598,6917.876,95.437,541.022,538.461,0.0
53701.0,STARLINK-4711,PAYLOAD,2024-02-04 12:06:11,15.08845467,0.0001856,53.2187,74.2651,91.2636,268.8568,7.5006e-05,9.06e-06,0.0,0 STARLINK-4711,1 53701U 22107B   24035.50430497  .00000906  00000-0  75006-4 0  9991,2 53701  53.2187  74.2651 0001856  91.2636 268.8568 15.08845467 79496,6917.864,95.437,541.013,538.445,0.0
53701.0,STARLINK-4711,PAYLOAD,2024-02-05 02:24:40,15.0883704,0.0001761,53.2178,71.5877,96.7627,263.3566,1.6071e-05,-3.2e-07,0.0,0 STARLINK-4711,1 53701U 22107B   24036.10047126 -.00000032  00000-0  16071-4 0  9999,2 53701  53.2178  71.5877 0001761  96.7627 263.3566 15.08837040 78834,6917.889,95.438,540.973,538.536,0.0
53701.0,STARLINK-4711,PAYLOAD,2024-02-05 11:56:58,15.08847884,0.0001548,53.2176,69.8089,100.3635,259.7531,1.635e-05,-2.8e-07,0.0,0 STARLINK-4711,1 53701U 22107B   24036.49790445 -.00000028  00000-0  16350-4 0  9995,2 53701  53.2176  69.8089 0001548 100.3635 259.7531 15.08847884 78895,6917.856,95.437,540.792,538.65,0.0
53701.0,STARLINK-4711,PAYLOAD,2024-02-06 02:15:27,15.08839852,0.000162,53.2174,67.1328,93.9425,266.1752,-7.2319e-05,-1.439e-05,0.0,0 STARLINK-4711,1 53701U 22107B   24037.09407400 -.00001439  00000-0 -72319-4 0  9993,2 53701  53.2174  67.1328 0001620  93.9425 266.1752 15.08839852 78988,6917.881,95.438,540.867,538.625,0.0
53701.0,STARLINK-4711,PAYLOAD,2024-02-06 10:12:23,15.0884404,0.0001669,53.2177,65.6464,94.6397,265.4786,-3.7341e-05,-8.82e-06,0.0,0 STARLINK-4711,1 53701U 22107B   24037.42527005 -.00000882  00000-0 -37341-4 0  9991,2 53701  53.2177  65.6464 0001669  94.6397 265.4786 15.08844040 79787,6917.868,95.437,540.888,538.578,0.0
53701.0,STARLINK-4711,PAYLOAD,2024-02-07 08:27:47,15.08843174,0.0001722,53.2184,61.4864,97.9607,262.158,6.2581e-05,7.08e-06,0.0,0 STARLINK-4711,1 53701U 22107B   24038.35262932  .00000708  00000-0  62581-4 0  9998,2 53701  53.2184  61.4864 0001722  97.9607 262.1580 15.08843174 79179,6917.871,95.437,540.927,538.544,0.0
53701.0,STARLINK-4711,PAYLOAD,2024-02-07 18:00:06,15.08838371,0.0001639,53.2176,59.7033,97.4386,262.6793,-3.8897e-05,-9.07e-06,0.0,0 STARLINK-4711,1 53701U 22107B   24038.75007579 -.00000907  00000-0 -38897-4 0  9992,2 53701  53.2176  59.7033 0001639  97.4386 262.6793 15.08838371 79235,6917.885,95.438,540.884,538.617,0.0
53701.0,STARLINK-4711,PAYLOAD,2024-02-08 08:18:34,15.08837029,0.0001622,53.2175,57.0265,97.7025,262.4152,8.22e-05,1.02e-05,0.0,0 STARLINK-4711,1 53701U 22107B   24039.34623601  .00001020  00000-0  82200-4 0  9990,2 53701  53.2175  57.0265 0001622  97.7025 262.4152 15.08837029 80077,6917.889,95.438,540.877,538.632,0.0
53701.0,STARLINK-4711,PAYLOAD,2024-02-09 00:12:26,15.08840814,0.0001689,53.2182,54.0528,103.5409,256.5771,3.2726e-05,2.33e-06,0.0,0 STARLINK-4711,1 53701U 22107B   24040.00863640  .00000233  00000-0  32726-4 0  9997,2 53701  53.2182  54.0528 0001689 103.5409 256.5771 15.08840814 79423,6917.878,95.438,540.911,538.574,0.0
53701.0,STARLINK-4711,PAYLOAD,2024-02-09 08:09:22,15.0883872,0.0001618,53.2179,52.5644,102.9392,257.1781,2.8764e-05,1.7e-06,0.0,0 STARLINK-4711,1 53701U 22107B   24040.33983872  .00000170  00000-0  28764-4 0  9990,2 53701  53.2179  52.5644 0001618 102.9392 257.1781 15.08838720 80228,6917.884,95.438,540.869,538.63,0.0
53701.0,STARLINK-4711,PAYLOAD,2024-02-10 00:03:13,15.08834481,0.0001474,53.2166,49.5886,95.5302,264.5859,6.4515e-05,7.39e-06,0.0,0 STARLINK-4711,1 53701U 22107B   24041.00224180  .00000739  00000-0  64515-4 0  9990,2 53701  53.2166  49.5886 0001474  95.5302 264.5859 15.08834481 79570,6917.897,95.438,540.782,538.743,0.0
53701.0,STARLINK-4711,PAYLOAD,2024-02-10 08:00:09,15.08841013,0.0001777,53.2172,48.1016,101.1566,258.9626,4.987e-05,5.06e-06,0.0,0 STARLINK-4711,1 53701U 22107B   24041.33343973  .00000506  00000-0  49870-4 0  9997,2 53701  53.2172  48.1016 0001777 101.1566 258.9626 15.08841013 80377,6917.877,95.437,540.972,538.513,0.0
53701.0,STARLINK-4711,PAYLOAD,2024-02-11 09:26:19,15.08844428,0.0001748,53.218,43.3435,78.6858,281.4331,0.00017733,2.536e-05,0.0,0 STARLINK-4711,1 53701U 22107B   24042.39327697  .00002536  00000-0  17733-3 0  9996,2 53701  53.2180  43.3435 0001748  78.6858 281.4331 15.08844428 79788,6917.867,95.437,540.941,538.523,0.0
53701.0,STARLINK-4711,PAYLOAD,2024-02-12 09:17:08,15.08822157,0.0001455,53.2179,38.8785,120.2532,239.8604,-0.00014014,-2.516e-05,0.0,0 STARLINK-4711,1 53701U 22107B   24043.38690522 -.00002516  00000-0 -14014-3 0  9995,2 53701  53.2179  38.8785 0001455 120.2532 239.8604 15.08822157 79933,6917.935,95.439,540.806,538.793,0.0
53701.0,STARLINK-4711,PAYLOAD,2024-02-13 02:46:22,15.08845362,0.0001316,53.2168,35.6226,71.1759,288.9376,-5.2283e-06,-3.71e-06,0.0,0 STARLINK-4711,1 53701U 22107B   24044.11553265 -.00000371  00000-0 -52283-5 0  9998,2 53701  53.2168  35.6226 0001316  71.1759 288.9376 15.08845362 80045,6917.864,95.437,540.639,538.819,0.0
53701.0,STARLINK-4711,PAYLOAD,2024-02-13 05:57:06,15.08861459,0.0001502,53.2184,35.0161,96.181,263.9353,0.00013266,1.825e-05,0.0,0 STARLINK-4711,1 53701U 22107B   24044.24799539  .00001825  00000-0  13266-3 0  9997,2 53701  53.2184  35.0161 0001502  96.1810 263.9353 15.08861459 80062,6917.815,95.436,540.719,538.641,0.0
53701.0,STARLINK-4711,PAYLOAD,2024-02-14 04:12:31,15.08840857,0.0001887,53.2196,30.8578,120.9758,239.142,0.00023011,3.376e-05,0.0,0 STARLINK-4711,1 53701U 22107B   24045.17536489  .00003376  00000-0  23011-3 0  9995,2 53701  53.2196  30.8578 0001887 120.9758 239.1420 15.08840857 80208,6917.878,95.438,541.048,538.437,0.0
53701.0,STARLINK-4711,PAYLOAD,2024-02-14 08:58:40,15.08846215,0.000135,53.2181,29.9604,96.9117,263.2029,0.00028733,4.289e-05,0.0,0 STARLINK-4711,1 53701U 22107B   24045.37408027  .00004289  00000-0  28733-3 0  9993,2 53701  53.2181  29.9604 0001350  96.9117 263.2029 15.08846215 80989,6917.861,95.437,540.66,538.792,0.0
53701.0,STARLINK-4711,PAYLOAD,2024-02-14 15:20:13,15.08839375,0.0001281,53.2178,28.7687,97.9157,262.198,0.00023164,3.401e-05,0.0,0 STARLINK-4711,1 53701U 22107B   24045.63904588  .00003401  00000-0  23164-3 0  9993,2 53701  53.2178  28.7687 0001281  97.9157 262.1980 15.08839375 81020,6917.882,95.438,540.633,538.861,0.0
53701.0,STARLINK-4711,PAYLOAD,2024-02-15 04:03:19,15.08841282,0.0001779,53.2198,26.3975,104.0927,256.0263,-0.00010259,-1.921e-05,0.0,0 STARLINK-4711,1 53701U 22107B   24046.16897442 -.00001921  00000-0 -10259-3 0  9990,2 53701  53.2198  26.3975 0001779 104.0927 256.0263 15.08841282 80354,6917.876,95.437,540.972,538.511,0.0
53701.0,STARLINK-4711,PAYLOAD,2024-02-15 05:38:42,15.08842347,0.0001793,53.2198,26.1005,106.0971,254.0219,-8.8223e-05,-1.692e-05,0.0,0 STARLINK-4711,1 53701U 22107B   24046.23521291 -.00001692  00000-0 -88223-4 0  9996,2 53701  53.2198  26.1005 0001793 106.0971 254.0219 15.08842347 81110,6917.873,95.437,540.979,538.498,0.0
53701.0,STARLINK-4711,PAYLOAD,2024-02-15 23:07:56,15.08839007,0.0001495,53.2186,22.8268,91.7139,268.4024,-4.2219e-05,-9.6e-06,0.0,0 STARLINK-4711,1 53701U 22107B   24046.96385341 -.00000960  00000-0 -42219-4 0  9992,2 53701  53.2186  22.8268 0001495  91.7139 268.4024 15.08839007 81220,6917.883,95.438,540.783,538.714,0.0
53701.0,STARLINK-4711,PAYLOAD,2024-02-16 05:29:28,15.0884569,0.0001376,53.2179,21.638,93.2782,266.8368,3.5814e-05,2.82e-06,0.0,0 STARLINK-4711,1 53701U 22107B   24047.22880641  .00000282  00000-0  35814-4 0  9993,2 53701  53.2179  21.6380 0001376  93.2782 266.8368 15.08845690 80512,6917.863,95.437,540.68,538.776,0.0
53701.0,STARLINK-4711,PAYLOAD,2024-02-16 21:23:20,15.08835832,0.0001717,53.219,18.6661,89.5096,270.6092,0.00011527,1.547e-05,0.0,0 STARLINK-4711,1 53701U 22107B   24047.89121032  .00001547  00000-0  11527-3 0  9997,2 53701  53.2190  18.6661 0001717  89.5096 270.6092 15.08835832 81366,6917.893,95.438,540.946,538.57,0.0
